NORAD_CAT_ID,OBJECT_NAME,OBJECT_TYPE,EPOCH,MEAN_MOTION,ECCENTRICITY,INCLINATION,RA_OF_ASC_NODE,ARG_OF_PERICENTER,MEAN_ANOMALY,BSTAR,MEAN_MOTION_DOT,MEAN_MOTION_DDOT,TLE_LINE0,TLE_LINE1,TLE_LINE2,SEMIMAJOR_AXIS,PERIOD,APOGEE,PERIGEE,DECAYED
53173.0,STARLINK-4300,PAYLOAD,2023-11-08 10:05:10,15.08847416,0.0001569,53.2176,5.1002,83.3483,276.7687,0.00019811,2.867e-05,0.0,0 STARLINK-4300,1 53173U 22083AT  23312.42025540  .00002867  00000-0  19811-3 0  9993,2 53173  53.2176   5.1002 0001569  83.3483 276.7687 15.08847416 73033,6917.858,95.437,540.808,538.637,0.0
53173.0,STARLINK-4300,PAYLOAD,2023-11-08 21:12:52,15.0882598,0.0002148,53.2197,3.0179,66.9833,293.1386,0.00057,8.792e-05,0.0,0 STARLINK-4300,1 53173U 22083AT  23312.88393598  .00008792  00000-0  57000-3 0  9999,2 53173  53.2197   3.0179 0002148  66.9833 293.1386 15.08825980 73107,6917.923,95.438,541.274,538.302,0.0
53173.0,STARLINK-4300,PAYLOAD,2023-11-09 03:34:24,15.08830597,0.0001517,53.2205,1.8282,89.3027,270.8139,0.00048358,7.415e-05,0.0,0 STARLINK-4300,1 53173U 22083AT  23313.14889512  .00007415  00000-0  48358-3 0  9992,2 53173  53.2205   1.8282 0001517  89.3027 270.8139 15.08830597 73783,6917.909,95.438,540.824,538.725,0.0
53173.0,STARLINK-4300,PAYLOAD,2023-11-09 09:55:56,15.08846431,0.0001684,53.22,0.6374,113.5778,246.5391,0.00033279,5.013e-05,0.0,0 STARLINK-4300,1 53173U 22083AT  23313.41384799  .00005013  00000-0  33279-3 0  9997,2 53173  53.2200   0.6374 0001684 113.5778 246.5391 15.08846431 73824,6917.861,95.437,540.891,538.561,0.0
53173.0,STARLINK-4300,PAYLOAD,2023-11-10 09:46:43,15.08847142,0.0001623,53.2186,356.1802,93.799,266.3187,3.2496e-05,2.29e-06,0.0,0 STARLINK-4300,1 53173U 22083AT  23314.40745289  .00000229  00000-0  32496-4 0  9997,2 53173  53.2186 356.1802 0001623  93.7990 266.3187 15.08847142 73979,6917.859,95.437,540.846,538.601,0.0
53173.0,STARLINK-4300,PAYLOAD,2023-11-11 03:15:58,15.08837582,0.0001348,53.2189,352.9084,89.112,271.0026,1.0217e-05,-1.25e-06,0.0,0 STARLINK-4300,1 53173U 22083AT  23315.13609446 -.00000125  00000-0  10217-4 0  9995,2 53173  53.2189 352.9084 0001348  89.1120 271.0026 15.08837582 74081,6917.888,95.438,540.685,538.82,0.0
53173.0,STARLINK-4300,PAYLOAD,2023-11-11 09:37:30,15.08844869,0.0001374,53.2184,351.7172,92.1587,267.9563,4.2138e-05,3.83e-06,0.0,0 STARLINK-4300,1 53173U 22083AT  23315.40104902  .00000383  00000-0  42138-4 0  9994,2 53173  53.2184 351.7172 0001374  92.1587 267.9563 15.08844869 74122,6917.866,95.437,540.681,538.78,0.0
53173.0,STARLINK-4300,PAYLOAD,2023-11-11 19:09:49,15.08848618,0.0001381,53.2181,349.9326,95.8728,264.2422,-5.5282e-05,-1.168e-05,0.0,0 STARLINK-4300,1 53173U 22083AT  23315.79848540 -.00001168  00000-0 -55282-4 0  9997,2 53173  53.2181 349.9326 0001381  95.8728 264.2422 15.08848618 73549,6917.854,95.437,540.674,538.764,0.0
53173.0,STARLINK-4300,PAYLOAD,2023-11-12 09:28:18,15.08834942,0.0001425,53.2194,347.2585,99.5677,260.5476,1.0948e-06,-2.71e-06,0.0,0 STARLINK-4300,1 53173U 22083AT  23316.39465648 -.00000271  00000-0  10948-5 0  9992,2 53173  53.2194 347.2585 0001425  99.5677 260.5476 15.08834942 74278,6917.896,95.438,540.747,538.775,0.0
53173.0,STARLINK-4300,PAYLOAD,2023-11-13 10:54:27,15.08854328,0.00014,53.2186,342.499,93.531,266.5842,0.0001589,2.243e-05,0.0,0 STARLINK-4300,1 53173U 22083AT  23317.45448082  .00002243  00000-0  15890-3 0  9992,2 53173  53.2186 342.4990 0001400  93.5310 266.5842 15.08854328 74438,6917.837,95.437,540.67,538.733,0.0
53173.0,STARLINK-4300,PAYLOAD,2023-11-13 23:37:33,15.0883769,0.0001406,53.2186,340.1202,88.8485,271.2668,0.00011804,1.591e-05,0.0,0 STARLINK-4300,1 53173U 22083AT  23317.98441236  .00001591  00000-0  11804-3 0  9990,2 53173  53.2186 340.1202 0001406  88.8485 271.2668 15.08837690 74516,6917.887,95.438,540.725,538.78,0.0
53173.0,STARLINK-4300,PAYLOAD,2023-11-14 10:45:15,15.0883445,0.0001536,53.2183,338.0342,101.7438,258.3726,9.9081e-05,1.289e-05,0.0,0 STARLINK-4300,1 53173U 22083AT  23318.44809327  .00001289  00000-0  99081-4 0  9999,2 53173  53.2183 338.0342 0001536 101.7438 258.3726 15.08834450 73949,6917.897,95.438,540.825,538.7,0.0
53173.0,STARLINK-4300,PAYLOAD,2023-11-14 18:42:11,15.08838767,0.0001421,53.2179,336.5493,81.9706,278.1447,1.1115e-05,-1.11e-06,0.0,0 STARLINK-4300,1 53173U 22083AT  23318.77929466 -.00000111  00000-0  11115-4 0  9998,2 53173  53.2179 336.5493 0001421  81.9706 278.1447 15.08838767 73994,6917.884,95.438,540.732,538.766,0.0
53173.0,STARLINK-4300,PAYLOAD,2023-11-15 01:03:43,15.08843706,0.0001434,53.2178,335.3601,89.705,270.4107,-6.5218e-05,-1.326e-05,0.0,0 STARLINK-4300,1 53173U 22083AT  23319.04425479 -.00001326  00000-0 -65218-4 0  9997,2 53173  53.2178 335.3601 0001434  89.7050 270.4107 15.08843706 74676,6917.869,95.437,540.726,538.742,0.0
53173.0,STARLINK-4300,PAYLOAD,2023-11-15 07:25:15,15.08847719,0.0001463,53.2174,334.1719,86.2521,273.8639,-3.0708e-05,-7.77e-06,0.0,0 STARLINK-4300,1 53173U 22083AT  23319.30921050 -.00000777  00000-0 -30708-4 0  9997,2 53173  53.2174 334.1719 0001463  86.2521 273.8639 15.08847719 74075,6917.857,95.437,540.734,538.71,0.0
53173.0,STARLINK-4300,PAYLOAD,2023-11-15 18:32:57,15.08848261,0.0001483,53.2174,332.0908,84.9692,275.1469,-2.0059e-05,-6.07e-06,0.0,0 STARLINK-4300,1 53173U 22083AT  23319.77288829 -.00000607  00000-0 -20059-4 0  9998,2 53173  53.2174 332.0908 0001483  84.9692 275.1469 15.08848261 74145,6917.855,95.437,540.746,538.694,0.0
53173.0,STARLINK-4300,PAYLOAD,2023-11-16 07:16:03,15.08832539,0.0001659,53.2186,329.7132,77.2845,282.8332,0.00010241,1.342e-05,0.0,0 STARLINK-4300,1 53173U 22083AT  23320.30281740  .00001342  00000-0  10241-3 0  9990,2 53173  53.2186 329.7132 0001659  77.2845 282.8332 15.08832539 74864,6917.903,95.438,540.916,538.621,0.0
53173.0,STARLINK-4300,PAYLOAD,2023-11-16 18:23:45,15.0883885,0.0001755,53.2186,327.6317,79.291,280.828,6.906e-05,8.11e-06,0.0,0 STARLINK-4300,1 53173U 22083AT  23320.76649482  .00000811  00000-0  69060-4 0  9995,2 53173  53.2186 327.6317 0001755  79.2910 280.8280 15.08838850 74297,6917.884,95.438,540.963,538.535,0.0
53173.0,STARLINK-4300,PAYLOAD,2023-11-17 10:17:36,15.08840339,0.000161,53.2179,324.6556,96.2074,263.9102,4.1773e-05,3.77e-06,0.0,0 STARLINK-4300,1 53173U 22083AT  23321.42889413  .00000377  00000-0  41773-4 0  9997,2 53173  53.2179 324.6556 0001610  96.2074 263.9102 15.08840339 75034,6917.879,95.438,540.858,538.631,0.0
53173.0,STARLINK-4300,PAYLOAD,2023-11-18 03:46:51,15.08835323,0.0001623,53.2179,321.384,97.1072,263.0105,2.7092e-05,1.43e-06,0.0,0 STARLINK-4300,1 53173U 22083AT  23322.15753908  .00000143  00000-0  27092-4 0  9996,2 53173  53.2179 321.3840 0001623  97.1072 263.0105 15.08835323 75149,6917.895,95.438,540.882,538.637,0.0
53173.0,STARLINK-4300,PAYLOAD,2023-11-18 06:57:37,15.08837352,0.0001555,53.2183,320.7916,89.4926,270.6244,5.009e-05,5.09e-06,0.0,0 STARLINK-4300,1 53173U 22083AT  23322.29001837  .00000509  00000-0  50090-4 0  9998,2 53173  53.2183 320.7916 0001555  89.4926 270.6244 15.08837352 74520,6917.888,95.438,540.829,538.678,0.0
53173.0,STARLINK-4300,PAYLOAD,2023-11-18 16:29:56,15.08836954,0.000149,53.2178,319.0049,92.1121,268.0041,4.4915e-05,4.27e-06,0.0,0 STARLINK-4300,1 53173U 22083AT  23322.68745890  .00000427  00000-0  44915-4 0  9993,2 53173  53.2178 319.0049 0001490  92.1121 268.0041 15.08836954 74587,6917.89,95.438,540.785,538.724,0.0
53173.0,STARLINK-4300,PAYLOAD,2023-11-19 06:48:24,15.08841576,0.0001527,53.2184,316.3302,91.6986,268.4181,8.7985e-05,1.113e-05,0.0,0 STARLINK-4300,1 53173U 22083AT  23323.28361621  .00001113  00000-0  87985-4 0  9993,2 53173  53.2184 316.3302 0001527  91.6986 268.4181 15.08841576 75317,6917.876,95.437,540.797,538.684,0.0
53173.0,STARLINK-4300,PAYLOAD,2023-11-19 16:20:43,15.08841505,0.0001525,53.2181,314.5466,90.5991,269.5176,2.3692e-05,8.9e-07,0.0,0 STARLINK-4300,1 53173U 22083AT  23323.68105805  .00000089  00000-0  23692-4 0  9993,2 53173  53.2181 314.5466 0001525  90.5991 269.5176 15.08841505 74730,6917.876,95.437,540.796,538.686,0.0
53173.0,STARLINK-4300,PAYLOAD,2023-11-20 06:39:11,15.08840707,0.0001512,53.218,311.8705,90.0391,270.0775,0.00010717,1.418e-05,0.0,0 STARLINK-4300,1 53173U 22083AT  23324.27721687  .00001418  00000-0  10717-3 0  9991,2 53173  53.2180 311.8705 0001512  90.0391 270.0775 15.08840707 74825,6917.878,95.438,540.789,538.697,0.0
53173.0,STARLINK-4300,PAYLOAD,2023-11-20 16:11:30,15.08843712,0.0001535,53.2183,310.0858,87.1003,273.0165,6.3248e-05,7.19e-06,0.0,0 STARLINK-4300,1 53173U 22083AT  23324.67465582  .00000719  00000-0  63248-4 0  9995,2 53173  53.2183 310.0858 0001535  87.1003 273.0165 15.08843712 75523,6917.869,95.437,540.796,538.672,0.0
53173.0,STARLINK-4300,PAYLOAD,2023-11-21 03:19:12,15.08835624,0.0001648,53.2192,308.0046,87.5314,272.5867,-1.9888e-05,-6.05e-06,0.0,0 STARLINK-4300,1 53173U 22083AT  23325.13834408 -.00000605  00000-0 -19888-4 0  9991,2 53173  53.2192 308.0046 0001648  87.5314 272.5867 15.08835624 75596,6917.894,95.438,540.899,538.619,0.0
53173.0,STARLINK-4300,PAYLOAD,2023-11-21 11:16:07,15.08847462,0.0001682,53.2183,306.5167,84.6752,275.4432,6.0185e-05,6.7e-06,0.0,0 STARLINK-4300,1 53173U 22083AT  23325.46953455  .00000670  00000-0  60185-4 0  9997,2 53173  53.2183 306.5167 0001682  84.6752 275.4432 15.08847462 75004,6917.858,95.437,540.886,538.559,0.0
53173.0,STARLINK-4300,PAYLOAD,2023-11-22 03:09:59,15.08838823,0.0001704,53.2189,303.5408,90.1474,269.9713,2.0278e-05,3.5e-07,0.0,0 STARLINK-4300,1 53173U 22083AT  23326.13194124  .00000035  00000-0  20278-4 0  9996,2 53173  53.2189 303.5408 0001704  90.1474 269.9713 15.08838823 75745,6917.884,95.438,540.928,538.57,0.0
53173.0,STARLINK-4300,PAYLOAD,2023-11-22 06:20:45,15.08844341,0.0001907,53.2194,302.949,96.2551,263.8658,4.7508e-05,4.68e-06,0.0,0 STARLINK-4300,1 53173U 22083AT  23326.26441726  .00000468  00000-0  47508-4 0  9998,2 53173  53.2194 302.9490 0001907  96.2551 263.8658 15.08844341 75128,6917.867,95.437,541.051,538.413,0.0
